     2.10           N: GPS NAV DATA                         RINEX VERSION / TYPE
teqc  2013Mar15     gpsops              20140513 00:05:26UTCPGM / RUN BY / DATE
Linux 2.4.21-27.ELsmp|Opteron|gcc -static|Linux x86_64|=+   COMMENT
MADR                                    MARKER NAME         COMMENT
13407S012                               MARKER NUMBER       COMMENT
4849202.3940 -360328.9929 4114913.1862                      COMMENT
                                                            COMMENT
This data is provided as a public service by NASA/JPL.      COMMENT
No warranty is expressed or implied regarding suitability   COMMENT
for use.  For further information, contact:                 COMMENT
Dave Stowers, NASA/JPL m/s 238-600                          COMMENT
4800 Oak Grove Drive, Pasadena CA 91109 USA                 COMMENT
                                                            END OF HEADER
 1 14  5 12  2  0  0.0 1.190416514874D-05 1.250555214938D-12 0.000000000000D+00
    2.800000000000D+01-4.359375000000D+01 4.941991568071D-09 1.587592453530D+00
   -2.104789018631D-06 3.013784182258D-03 6.880611181259D-06 5.153676286697D+03
    9.360000000000D+04 5.587935447693D-08-1.443666036382D+00 1.508742570877D-07
    9.604370196341D-01 2.460312500000D+02 3.061348586257D-01-8.285702275615D-09
   -5.300220775470D-10 1.000000000000D+00 1.792000000000D+03 0.000000000000D+00
    2.000000000000D+00 0.000000000000D+00 5.587935447693D-09 2.800000000000D+01
    8.640000000000D+04 4.000000000000D+00
11 14  5 12  2  0  0.0-4.881792701781D-04-3.183231456205D-12 0.000000000000D+00
    2.400000000000D+01-3.006250000000D+01 6.882072380224D-09 1.123198627011D+00
   -1.655891537666D-06 1.491864479613D-02 4.807487130165D-06 5.153693763733D+03
    9.360000000000D+04-3.520399332047D-07-1.766645568679D+00-3.725290298462D-09
    8.900591366157D-01 2.542500000000D+02 1.282326752571D+00-9.456822486044D-09
   -2.742971398626D-10 1.000000000000D+00 1.792000000000D+03 0.000000000000D+00
    2.000000000000D+00 0.000000000000D+00-1.210719347000D-08 2.400000000000D+01
    8.640000000000D+04 4.000000000000D+00
16 14  5 12  2  0  0.0-2.189003862441D-04 1.932676241267D-12 0.000000000000D+00
    7.300000000000D+01-3.171875000000D+01 3.711226016032D-09-1.630949988002D+00
   -2.022832632065D-06 7.744599366561D-03 1.166574656963D-05 5.153590555191D+03
    9.360000000000D+04-7.450580596924D-09 2.798245654575D+00-1.080334186554D-07
    9.883422741600D-01 1.668125000000D+02 1.985788246566D-01-7.538885453411D-09
    3.678724662220D-10 1.000000000000D+00 1.792000000000D+03 0.000000000000D+00
    2.000000000000D+00 0.000000000000D+00-1.024454832077D-08 7.300000000000D+01
    8.640000000000D+04 4.000000000000D+00
19 14  5 12  2  0  0.0-4.563401453197D-04-2.273736754432D-12 0.000000000000D+00
    3.300000000000D+01 2.909375000000D+01 4.849130557180D-09 2.929645104209D+00
    1.465901732445D-06 1.029328606091D-02 5.945563316345D-06 5.153604795456D+03
    9.360000000000D+04-1.098960638046D-07-2.402501192904D+00-1.192092895508D-07
    9.655737009804D-01 2.689687500000D+02 4.253092314481D-01-8.034263230741D-09
    3.993023468312D-10 1.000000000000D+00 1.792000000000D+03 0.000000000000D+00
    2.000000000000D+00 0.000000000000D+00-1.490116119385D-08 3.300000000000D+01
    8.640000000000D+04 4.000000000000D+00
22 14  5 12  2  0  0.0 2.335519529879D-04 2.842170943040D-12 0.000000000000D+00
    4.600000000000D+01 4.050000000000D+01 4.999851121011D-09-1.532288327719D+00
    1.979991793633D-06 7.178457221016D-03 1.127459108829D-05 5.153732992172D+03
    9.360000000000D+04 2.123415470123D-07-4.082229817258D-01 6.146728992462D-08
    9.239880572742D-01 1.441562500000D+02-2.058890546793D+00-8.156411175836D-09
   -2.892977646988D-10 1.000000000000D+00 1.792000000000D+03 0.000000000000D+00
    2.000000000000D+00 0.000000000000D+00-1.722946763039D-08 4.600000000000D+01
    8.640000000000D+04 4.000000000000D+00
27 14  5 12  2  0  0.0-1.676613464952D-05 1.705302565824D-12 0.000000000000D+00
    5.400000000000D+01 3.443750000000D+01 4.885203488334D-09-2.485693913529D+00
    1.732259988785D-06 1.207257155329D-03 6.441026926041D-06 5.153667098999D+03
    9.360000000000D+04-1.676380634308D-08-2.498796422272D+00-4.470348358154D-08
    9.632634666013D-01 2.586875000000D+02 1.173198447396D-01-8.200698734876D-09
    4.450185368083D-10 1.000000000000D+00 1.792000000000D+03 0.000000000000D+00
    2.000000000000D+00 0.000000000000D+00 1.862645149231D-09 5.400000000000D+01
    8.640000000000D+04 4.000000000000D+00
28 14  5 12  2  0  0.0 3.540795296431D-04 2.842170943040D-12 0.000000000000D+00
    7.400000000000D+01-2.665625000000D+01 3.692653813853D-09-1.732975708869D+00
   -1.128762960434D-06 1.912533107679D-02 1.255795359612D-05 5.153675159454D+03
    9.360000000000D+04 3.166496753693D-07 2.804040967973D+00 3.427267074585D-07
    9.868656909629D-01 1.442500000000D+02-1.715854627067D+00-7.380307419428D-09
    3.339424814733D-10 1.000000000000D+00 1.792000000000D+03 0.000000000000D+00
    2.800000000000D+00 0.000000000000D+00-1.071020960808D-08 7.400000000000D+01
    8.640000000000D+04 4.000000000000D+00
 3 14  5 12  2  0  0.0 3.635850735009D-04 5.002220859751D-12 0.000000000000D+00
    1.140000000000D+02 3.871875000000D+01 5.275934049545D-09 2.331984402888D+00
    1.793727278709D-06 1.694695279002D-02 6.899237632751D-06 5.153787105560D+03
    9.360000000000D+04 1.937150955200D-07-2.647591776036D+00-1.937150955200D-07
    9.382952585752D-01 2.320937500000D+02 1.380983711035D+00-8.135696027253D-09
    4.821629411647D-10 1.000000000000D+00 1.792000000000D+03 0.000000000000D+00
    2.800000000000D+00 0.000000000000D+00-4.656612873077D-09 1.140000000000D+02
    8.643000000000D+04 4.000000000000D+00
14 14  5 12  2  0  0.0 1.736911945045D-04-3.410605131648D-12 0.000000000000D+00
    6.000000000000D+01 7.568750000000D+01 4.306250801202D-09-2.650229446591D+00
    3.986060619354D-06 7.455065497197D-03 3.818422555923D-06 5.153657131195D+03
    9.360000000000D+04 4.842877388000D-08 7.201753432909D-01-4.470348358154D-08
    9.704561008319D-01 3.117500000000D+02-1.999602399123D+00-8.054621221590D-09
    2.992981812563D-10 1.000000000000D+00 1.792000000000D+03 0.000000000000D+00
    2.800000000000D+00 0.000000000000D+00-9.313225746155D-09 6.000000000000D+01
    8.643000000000D+04 4.000000000000D+00
20 14  5 12  2  0  0.0 1.885509118438D-04 3.865352482535D-12 0.000000000000D+00
    2.400000000000D+01 4.659375000000D+01 5.023423531468D-09-4.491746435497D-01
    2.369284629822D-06 5.780437146313D-03 1.208111643791D-05 5.153808458328D+03
    9.360000000000D+04-3.911554813385D-08-4.632118077282D-01 7.636845111847D-08
    9.271647926609D-01 1.273437500000D+02 1.331270615279D+00-8.338204462542D-09
   -2.603679882289D-10 1.000000000000D+00 1.792000000000D+03 0.000000000000D+00
    2.000000000000D+00 0.000000000000D+00-8.381903171539D-09 2.400000000000D+01
    8.643000000000D+04 4.000000000000D+00
32 14  5 12  2  0  0.0-4.308503121138D-04 8.071765478235D-12 0.000000000000D+00
    2.700000000000D+01 6.356250000000D+01 4.455899891830D-09 1.524832877330D+00
    3.371387720108D-06 1.141534443013D-02 1.149810850620D-05 5.153752323151D+03
    9.360000000000D+04-2.980232238770D-08-3.164224496594D-01 2.179294824600D-07
    9.481911415899D-01 1.496875000000D+02-1.601002126793D-01-7.899257607215D-09
   -2.889406069646D-10 1.000000000000D+00 1.792000000000D+03 0.000000000000D+00
    2.000000000000D+00 0.000000000000D+00-3.259629011154D-09 2.700000000000D+01
    8.643000000000D+04 4.000000000000D+00
23 14  5 12  1 59 44.0-1.976452767849D-05-3.069544618484D-12 0.000000000000D+00
    2.900000000000D+01 9.015625000000D+01 4.829129724065D-09 2.613612321798D+00
    4.580244421959D-06 9.296215022914D-03 4.047527909279D-06 5.153789920807D+03
    9.358400000000D+04-1.229345798492D-07 6.551097883408D-01-1.173466444016D-07
    9.521529446491D-01 2.977500000000D+02-2.793119573533D+00-8.378206128772D-09
    2.835832409517D-10 1.000000000000D+00 1.792000000000D+03 0.000000000000D+00
    2.000000000000D+00 0.000000000000D+00-2.002343535423D-08 2.900000000000D+01
    8.937000000000D+04 4.000000000000D+00
17 14  5 12  2  0  0.0-9.240210056305D-05-3.069544618484D-12 0.000000000000D+00
    3.500000000000D+01 3.303125000000D+01 4.805557313608D-09-2.578785592222D+00
    1.776963472366D-06 9.290366782807D-03 6.154179573059D-06 5.153582040787D+03
    9.360000000000D+04 2.086162567139D-07-2.453358132602D+00-7.450580596924D-08
    9.684897209586D-01 2.628437500000D+02-2.100209191857D+00-8.076765001110D-09
    4.989493546719D-10 1.000000000000D+00 1.792000000000D+03 0.000000000000D+00
    2.000000000000D+00 0.000000000000D+00-1.024454832077D-08 3.500000000000D+01
    9.084000000000D+04 4.000000000000D+00
 1 14  5 12  4  0  0.0 1.191301271319D-05 1.250555214938D-12 0.000000000000D+00
    6.100000000000D+01-4.034375000000D+01 4.906990110120D-09 2.637921289199D+00
   -2.102926373482D-06 3.013842157088D-03 6.787478923798D-06 5.153675519943D+03
    1.008000000000D+05-9.872019290924D-08-1.443725926786D+00-1.862645149231D-09
    9.604342400898D-01 2.483125000000D+02 3.059892061129D-01-8.134981711784D-09
   -4.075169747177D-10 1.000000000000D+00 1.792000000000D+03 0.000000000000D+00
    2.000000000000D+00 0.000000000000D+00 5.587935447693D-09 6.100000000000D+01
    9.360000000000D+04 4.000000000000D+00
11 14  5 12  4  0  0.0-4.882020875812D-04-3.183231456205D-12 0.000000000000D+00
    3.600000000000D+01-3.259375000000D+01 6.610275344501D-09 2.173286049013D+00
   -1.966953277588D-06 1.491844106931D-02 3.909692168236D-06 5.153696504593D+03
    1.008000000000D+05 8.195638656616D-08-1.766712413795D+00-2.793967723846D-07
    8.900597495783D-01 2.643437500000D+02 1.282423681134D+00-8.928586197168D-09
   -1.910793877949D-10 1.000000000000D+00 1.792000000000D+03 0.000000000000D+00
    2.000000000000D+00 0.000000000000D+00-1.210719347000D-08 3.600000000000D+01
    9.360000000000D+04 4.000000000000D+00
